{"fetched_at":"2026-03-29T02:12:04Z","count":15717,"tles":[{"name":"SEMI-1L","line1":"1 66294U 25248B   26087.57283435  .00013569  00000+0  62796-3 0  9994","line2":"2 66294  45.4003 193.7664 0003274 310.2868  49.7732 15.20147979 22242","category":"Other"}]}