{
  "norad_id": 66294,
  "name": "SEMI-1L",
  "history": [
    {
      "epoch": "2026-03-28T13:44:52.886976",
      "apogee_km": 507.6482150606025,
      "perigee_km": 503.1395023481509,
      "latitude_deg": -21.30697452544141,
      "longitude_deg": 144.39209663984366,
      "semi_major_axis_km": 6883.530858704376,
      "eccentricity": 0.0003275,
      "inclination_deg": 45.4003,
      "raan_deg": 193.7664,
      "arg_perigee_deg": 310.2868,
      "mean_anomaly_deg": 49.7732,
      "mean_motion_rev_day": 15.20147979
    }
  ]
}